$$SOE
2460721.500000000, A.D. 2025-Feb-15 00:00:00.0000, 1.457481044809922E+08, -4.156435978843703E+08, -6.900723740764210E+07,
2460728.500000000, A.D. 2025-Feb-22 00:00:00.0000, 1.555866857925036E+08, -4.119253004229540E+08, -6.878199344583684E+07,
2460735.500000000, A.D. 2025-Mar-01 00:00:00.0000, 1.653399460998026E+08, -4.079811671377045E+08, -6.851902862510303E+07,
2460742.500000000, A.D. 2025-Mar-08 00:00:00.0000, 1.750024440613514E+08, -4.038131240649691E+08, -6.821844775044408E+07,
2460749.500000000, A.D. 2025-Mar-15 00:00:00.0000, 1.845687804800354E+08, -3.994232289486469E+08, -6.788037757933897E+07,
2460756.500000000, A.D. 2025-Mar-22 00:00:00.0000, 1.940335996838543E+08, -3.948136700377266E+08, -6.750496658477819E+07,
2460763.500000000, A.D. 2025-Mar-29 00:00:00.0000, 2.033915922671109E+08, -3.899867670302736E+08, -6.709238501003554E+07,
2460770.500000000, A.D. 2025-Apr-05 00:00:00.0000, 2.126374995144571E+08, -3.849449710251938E+08, -6.664282498877762E+07,
2460777.500000000, A.D. 2025-Apr-12 00:00:00.0000, 2.217661175784605E+08, -3.796908633781653E+08, -6.615650054567696E+07,
2460784.500000000, A.D. 2025-Apr-19 00:00:00.0000, 2.307723012197361E+08, -3.742271543431282E+08, -6.563364753260201E+07,
2460791.500000000, A.D. 2025-Apr-26 00:00:00.0000, 2.396509673775371E+08, -3.685566817023068E+08, -6.507452354208700E+07,
2460798.500000000, A.D. 2025-May-03 00:00:00.0000, 2.483970986806850E+08, -3.626824093657082E+08, -6.447940780712752E+07,
2460805.500000000, A.D. 2025-May-10 00:00:00.0000, 2.570057469234448E+08, -3.566074259316555E+08, -6.384860108935556E+07,
2460812.500000000, A.D. 2025-May-17 00:00:00.0000, 2.654720365390033E+08, -3.503349432494696E+08, -6.318242556239700E+07,
2460819.500000000, A.D. 2025-May-24 00:00:00.0000, 2.737911682408162E+08, -3.438682950389340E+08, -6.248122471091709E+07,
2460826.500000000, A.D. 2025-May-31 00:00:00.0000, 2.819584232464634E+08, -3.372109352567853E+08, -6.174536325848180E+07,
2460833.500000000, A.D. 2025-Jun-07 00:00:00.0000, 2.899691676793272E+08, -3.303664350080205E+08, -6.097522698918471E+07,
2460840.500000000, A.D. 2025-Jun-14 00:00:00.0000, 2.978188547778168E+08, -3.233384786708938E+08, -6.017122230040695E+07,
2460847.500000000, A.D. 2025-Jun-21 00:00:00.0000, 3.055030261221105E+08, -3.161308625060062E+08, -5.933377586492693E+07,
2460854.500000000, A.D. 2025-Jun-28 00:00:00.0000, 3.130173150020323E+08, -3.087474939826527E+08, -5.846333454461265E+07,
2460861.500000000, A.D. 2025-Jul-05 00:00:00.0000, 3.203574504074298E+08, -3.011923896658704E+08, -5.756036524059869E+07,
2460868.500000000, A.D. 2025-Jul-12 00:00:00.0000, 3.275192604489351E+08, -2.934696724716842E+08, -5.662535463723232E+07,
2460875.500000000, A.D. 2025-Jul-19 00:00:00.0000, 3.344986753970905E+08, -2.855835688692219E+08, -5.565880890495981E+07,
2460882.500000000, A.D. 2025-Jul-26 00:00:00.0000, 3.412917305471476E+08, -2.775384060905136E+08, -5.466125338660012E+07,
2460889.500000000, A.D. 2025-Aug-02 00:00:00.0000, 3.478945689711722E+08, -2.693386093303553E+08, -5.363323227144888E+07,
2460896.500000000, A.D. 2025-Aug-09 00:00:00.0000, 3.543034441762002E+08, -2.609886989541318E+08, -5.257530826043931E+07,
2460903.500000000, A.D. 2025-Aug-16 00:00:00.0000, 3.605147227400905E+08, -2.524932877789444E+08, -5.148806223423111E+07,
2460910.500000000, A.D. 2025-Aug-23 00:00:00.0000, 3.665248872127470E+08, -2.438570784123749E+08, -5.037209294929487E+07,
2460917.500000000, A.D. 2025-Aug-30 00:00:00.0000, 3.723305396086448E+08, -2.350848599355903E+08, -4.922801673362413E+07,
2460924.500000000, A.D. 2025-Sep-06 00:00:00.0000, 3.779284040712926E+08, -2.261815029332788E+08, -4.805646697046223E+07,
2460931.500000000, A.D. 2025-Sep-13 00:00:00.0000, 3.833153270365268E+08, -2.171519553572062E+08, -4.685809342000230E+07,
2460938.500000000, A.D. 2025-Sep-20 00:00:00.0000, 3.884882781640507E+08, -2.080012408701954E+08, -4.563356181383613E+07,
2460945.500000000, A.D. 2025-Sep-27 00:00:00.0000, 3.934443530934494E+08, -1.987344565610210E+08, -4.438355356531099E+07,
2460952.500000000, A.D. 2025-Oct-04 00:00:00.0000, 3.981807760069233E+08, -1.893567694946132E+08, -4.310876536733399E+07,
2460959.500000000, A.D. 2025-Oct-11 00:00:00.0000, 4.026949016236335E+08, -1.798734130448355E+08, -4.180990872099656E+07,
2460966.500000000, A.D. 2025-Oct-18 00:00:00.0000, 4.069842169074232E+08, -1.702896832883247E+08, -4.048770944399330E+07,
2460973.500000000, A.D. 2025-Oct-25 00:00:00.0000, 4.110463426254955E+08, -1.606109354522063E+08, -3.914290717127040E+07,
2460980.500000000, A.D. 2025-Nov-01 00:00:00.0000, 4.148790347956727E+08, -1.508425804039177E+08, -3.777625485084071E+07,
2460987.500000000, A.D. 2025-Nov-08 00:00:00.0000, 4.184801860550058E+08, -1.409900812183697E+08, -3.638851824115132E+07,
2460994.500000000, A.D. 2025-Nov-15 00:00:00.0000, 4.218478270953341E+08, -1.310589498847844E+08, -3.498047542903595E+07,
2461001.500000000, A.D. 2025-Nov-22 00:00:00.0000, 4.249801285657403E+08, -1.210547439360417E+08, -3.355291638786320E+07,
2461008.500000000, A.D. 2025-Nov-29 00:00:00.0000, 4.278754032875760E+08, -1.109830618676398E+08, -3.210664246978142E+07,
2461015.500000000, A.D. 2025-Dec-06 00:00:00.0000, 4.305321065061613E+08, -1.008495374861152E+08, -3.064246563518249E+07,
2461022.500000000, A.D. 2025-Dec-13 00:00:00.0000, 4.329488346127502E+08, -9.065983656283784E+07, -2.916120773548598E+07,
2461029.500000000, A.D. 2025-Dec-20 00:00:00.0000, 4.351243258273158E+08, -8.041965477381197E+07, -2.766370008668717E+07,
2461036.500000000, A.D. 2025-Dec-27 00:00:00.0000, 4.370574617672424E+08, -7.013471433678046E+07, -2.615078302403107E+07,
2461043.500000000, A.D. 2026-Jan-03 00:00:00.0000, 4.387472684431736E+08, -5.981075996439087E+07, -2.462330535494517E+07,
2461050.500000000, A.D. 2026-Jan-10 00:00:00.0000, 4.401929167923596E+08, -4.945355481575897E+07, -2.308212377641623E+07,
2461057.500000000, A.D. 2026-Jan-17 00:00:00.0000, 4.413937229826655E+08, -3.906887654124106E+07, -2.152810228621381E+07,
2461064.500000000, A.D. 2026-Jan-24 00:00:00.0000, 4.423491485660864E+08, -2.866251340086067E+07, -1.996211159380337E+07,
2461071.500000000, A.D. 2026-Jan-31 00:00:00.0000, 4.430588005065401E+08, -1.824026046700034E+07, -1.838502853422833E+07,
2461078.500000000, A.D. 2026-Feb-07 00:00:00.0000, 4.435224311450091E+08, -7.807915972399865E+06, -1.679773549579186E+07,
2461085.500000000, A.D. 2026-Feb-14 00:00:00.0000, 4.437399383558719E+08, 2.628722176735991E+06, -1.520111988651668E+07,
2461092.500000000, A.D. 2026-Feb-21 00:00:00.0000, 4.437113662806329E+08, 1.306386029520256E+07, -1.359607362826281E+07,
2461099.500000000, A.D. 2026-Feb-28 00:00:00.0000, 4.434369055527304E+08, 2.349171437187083E+07, -1.198349248513639E+07,
2461106.500000000, A.D. 2026-Mar-07 00:00:00.0000, 4.429168909565988E+08, 3.390651512897801E+07, -1.036427519722718E+07,
2461113.500000000, A.D. 2026-Mar-14 00:00:00.0000, 4.421517992978128E+08, 4.430251035103672E+07, -8.739322865649225E+06,
2461120.500000000, A.D. 2026-Mar-21 00:00:00.0000, 4.411422492669666E+08, 5.467396737913818E+07, -7.109538516269637E+06,
2461127.500000000, A.D. 2026-Mar-28 00:00:00.0000, 4.398890012906098E+08, 6.501517679786446E+07, -5.475826574257571E+06,
2461134.500000000, A.D. 2026-Apr-04 00:00:00.0000, 4.383929567701173E+08, 7.532045634620968E+07, -3.839092273391768E+06,
2461141.500000000, A.D. 2026-Apr-11 00:00:00.0000, 4.366551569864071E+08, 8.558415468844876E+07, -2.200241054997511E+06,
2461148.500000000, A.D. 2026-Apr-18 00:00:00.0000, 4.346767818327009E+08, 9.580065503402033E+07, -5.601779719722867E+05,
2461155.500000000, A.D. 2026-Apr-25 00:00:00.0000, 4.324591484234834E+08, 1.059643786173439E+08, 1.080192898800135E+06,
2461162.500000000, A.D. 2026-May-02 00:00:00.0000, 4.300037096126848E+08, 1.160697880047393E+08, 2.719969030105539E+06,
2461169.500000000, A.D. 2026-May-09 00:00:00.0000, 4.273120525484537E+08, 1.261113901592965E+08, 4.358249986952841E+06,
2461176.500000000, A.D. 2026-May-16 00:00:00.0000, 4.243858976452250E+08, 1.360837393987118E+08, 5.994137914218284E+06,
2461183.500000000, A.D. 2026-May-23 00:00:00.0000, 4.212270980259684E+08, 1.459814412650090E+08, 7.626738047578044E+06,
2461190.500000000, A.D. 2026-May-30 00:00:00.0000, 4.178376373571534E+08, 1.557991576246003E+08, 9.255159464075156E+06,
2461197.500000000, A.D. 2026-Jun-06 00:00:00.0000, 4.142196257644365E+08, 1.655316097246560E+08, 1.087851583366777E+07,
2461204.500000000, A.D. 2026-Jun-13 00:00:00.0000, 4.103752974996291E+08, 1.751735794012182E+08, 1.249592585109527E+07,
2461211.500000000, A.D. 2026-Jun-20 00:00:00.0000, 4.063070098590870E+08, 1.847199113620809E+08, 1.410651363231314E+07,
2461218.500000000, A.D. 2026-Jun-27 00:00:00.0000, 4.020172416571741E+08, 1.941655162030720E+08, 1.570940920284019E+07,
2461225.500000000, A.D. 2026-Jul-04 00:00:00.0000, 3.975085912578238E+08, 2.035053733814870E+08, 1.730374901407646E+07,
2461232.500000000, A.D. 2026-Jul-11 00:00:00.0000, 3.927837744213706E+08, 2.127345340132953E+08, 1.888867645289180E+07,
2461239.500000000, A.D. 2026-Jul-18 00:00:00.0000, 3.878456220625196E+08, 2.218481235184591E+08, 2.046334233747452E+07,
2461246.500000000, A.D. 2026-Jul-25 00:00:00.0000, 3.826970779470270E+08, 2.308413441158743E+08, 2.202690539687802E+07,
2461253.500000000, A.D. 2026-Aug-01 00:00:00.0000, 3.773411963784235E+08, 2.397094771188755E+08, 2.357853272546130E+07,
2461260.500000000, A.D. 2026-Aug-08 00:00:00.0000, 3.717811400932651E+08, 2.484478849947107E+08, 2.511740018922618E+07,
2461267.500000000, A.D. 2026-Aug-15 00:00:00.0000, 3.660201787837451E+08, 2.570520136371153E+08, 2.664269278239395E+07,
2461274.500000000, A.D. 2026-Aug-22 00:00:00.0000, 3.600616874885083E+08, 2.655173960709926E+08, 2.815360510322286E+07,
2461281.500000000, A.D. 2026-Aug-29 00:00:00.0000, 3.539091425632403E+08, 2.738396562166140E+08, 2.964934204661165E+07,
2461288.500000000, A.D. 2026-Sep-05 00:00:00.0000, 3.475661173696221E+08, 2.820145098474775E+08, 3.112911928373249E+07,
$$EOE